*******************************************************************************
JPL/HORIZONS                 141 Lumen (A875 AA)           2020-Jun-20 08:19:50
Rec #:     141 (+COV) Soln.date: 2020-May-20_00:59:42   # obs: 1999 (1877-2020)
 
IAU76/J2000 helio. ecliptic osc. elements (au, days, deg., period=Julian yrs):
 
  EPOCH=  2455557.5 ! 2010-Dec-27.00 (TDB)         Residual RMS= .27747
   EC= .2128539275927965   QR= 2.099610537064456   TP= 2456309.71988378
   OM= 318.5675088823447   W=  58.17470882059543   IN= 11.8844770066934
   A= 2.667370912038666    MA= 189.8140251133443   ADIST= 3.235131287012876
   PER= 4.35646            N= .226244977           ANGMOM= .027450804
   DAN= 2.28953            DDN= 2.86849            L= 16.1833133
   B= 10.0773893           MOID= 1.12634003        TP= 2013-Jan-17.2198837800
 
Asteroid physical parameters (km, seconds, rotational period in hours):
   GM= n.a.                RAD= 58.958             ROTPER= 19.87
   H= 8.5                  G= .150                 B-V= n.a.
                           ALBEDO= .067            STYP= Ch
 
ASTEROID comments: 
1: soln ref.= JPL#69, OCC=0
2: source=ORB
*******************************************************************************
 
 
*******************************************************************************
Ephemeris / WWW_USER Sat Jun 20 08:19:50 2020 Pasadena, USA      / Horizons
*******************************************************************************
Target body name: 141 Lumen (A875 AA)             {source: JPL#69}
Center body name: Solar System Barycenter (0)     {source: DE431}
Center-site name: BODY CENTER
*******************************************************************************
Start time      : A.D. 1969-Jun-28 00:00:00.0000 TDB
Stop  time      : A.D. 2071-May-04 00:00:00.0000 TDB
Step-size       : 7200 minutes
*******************************************************************************
Center geodetic : 0.00000000,0.00000000,0.0000000 {E-lon(deg),Lat(deg),Alt(km)}
Center cylindric: 0.00000000,0.00000000,0.0000000 {E-lon(deg),Dxy(km),Dz(km)}
Center radii    : (undefined)                                                  
Small perturbers: Yes                             {source: SB431-N16}
Output units    : AU-D
Output type     : GEOMETRIC cartesian states
Output format   : 2 (position and velocity)
Reference frame : Ecliptic of J2000.0
*******************************************************************************
Initial IAU76/J2000 heliocentric ecliptic osculating elements (au, days, deg.):
  EPOCH=  2455557.5 ! 2010-Dec-27.00 (TDB)         Residual RMS= .27747        
   EC= .2128539275927965   QR= 2.099610537064456   TP= 2456309.71988378        
   OM= 318.5675088823447   W=  58.17470882059543   IN= 11.8844770066934        
  Equivalent ICRF heliocentric equatorial cartesian coordinates (au, au/d):
   X=-2.925382883984278E+00  Y=-8.882718195306256E-01  Z=-1.040479904465274E+00
  VX= 3.645647595538279E-03 VY=-6.741509324202219E-03 VZ=-3.685220181528096E-03
Asteroid physical parameters (km, seconds, rotational period in hours):        
   GM= n.a.                RAD= 58.958             ROTPER= 19.87               
   H= 8.5                  G= .150                 B-V= n.a.                   
                           ALBEDO= .067            STYP= Ch                    
*******************************************************************************
            JDTDB,            Calendar Date (TDB),        delta-T,                      X,                      Y,                      Z,                     VX,                     VY,                     VZ,
******************************************************************************************************************************************************************************************************************
$$SOE
2455800.500000000, A.D. 2011-Aug-27 00:00:00.0000,      66.182730, -1.364191646024697E+00, -2.600137832727829E+00, -5.995489111357216E-01,  8.813507586024659E-03, -2.914115967883267E-03,  7.683919894068725E-04,
2455805.500000000, A.D. 2011-Sep-01 00:00:00.0000,      66.182646, -1.319938204388926E+00, -2.614348675064778E+00, -5.956243132855324E-01,  8.887562916686353E-03, -2.769891949995917E-03,  8.014563954384778E-04,
2455810.500000000, A.D. 2011-Sep-06 00:00:00.0000,      66.182572, -1.275319116190453E+00, -2.627833458919167E+00, -5.915342595080474E-01,  8.959758604987962E-03, -2.623691962511557E-03,  8.345733970231261E-04,
2455815.500000000, A.D. 2011-Sep-11 00:00:00.0000,      66.182506, -1.230343794810017E+00, -2.640582295658686E+00, -5.872785014884025E-01,  9.030048366925211E-03, -2.475512573429929E-03,  8.677370859430328E-04,
2455820.500000000, A.D. 2011-Sep-16 00:00:00.0000,      66.182450, -1.185021888319594E+00, -2.652585280756409E+00, -5.828568211083668E-01,  9.098384605058903E-03, -2.325350864880314E-03,  9.009412898115983E-04,
2455825.500000000, A.D. 2011-Sep-21 00:00:00.0000,      66.182407, -1.139363286123612E+00, -2.663832496483372E+00, -5.782690317968374E-01,  9.164718378933605E-03, -2.173204482367022E-03,  9.341795601327594E-04,
2455830.500000000, A.D. 2011-Sep-26 00:00:00.0000,      66.182377, -1.093378125747670E+00, -2.674314014854720E+00, -5.735149799413048E-01,  9.228999375631966E-03, -2.019071686988553E-03,  9.674451598453478E-04,
2455835.500000000, A.D. 2011-Oct-01 00:00:00.0000,      66.182360, -1.047076799774365E+00, -2.684019900844598E+00, -5.685945463628802E-01,  9.291175880381922E-03, -1.862951410706903E-03,  1.000731050364468E-03,
2455840.500000000, A.D. 2011-Oct-06 00:00:00.0000,      66.182354, -1.000469962925792E+00, -2.692940215884866E+00, -5.635076478572300E-01,  9.351194747295916E-03, -1.704843314603795E-03,  1.034029878187096E-03,
2455845.500000000, A.D. 2011-Oct-11 00:00:00.0000,      66.182358, -9.535685392917380E-01, -2.701065021662509E+00, -5.582542388034447E-01,  9.409001370386350E-03, -1.544747850096426E-03,  1.067333961123808E-03,
2455850.500000000, A.D. 2011-Oct-16 00:00:00.0000,      66.182374, -9.063837297017536E-01, -2.708384384230523E+00, -5.528343128425638E-01,  9.464539655027786E-03, -1.382666323115469E-03,  1.100635274214173E-03,
2455855.500000000, A.D. 2011-Oct-21 00:00:00.0000,      66.182404, -8.589270192383132E-01, -2.714888378447125E+00, -5.472479046271942E-01,  9.517751990107843E-03, -1.218600961261343E-03,  1.133925435380817E-03,
2455860.500000000, A.D. 2011-Oct-26 00:00:00.0000,      66.182447, -8.112101848868376E-01, -2.720567092758335E+00, -5.414950916434522E-01,  9.568579221190619E-03, -1.052554984025312E-03,  1.167195690845930E-03,
2455865.500000000, A.D. 2011-Oct-31 00:00:00.0000,      66.182502, -7.632453033166349E-01, -2.725410634339788E+00, -5.355759961064838E-01,  9.616960625041648E-03, -8.845326763056348E-04,  1.200436900270641E-03,
2455870.500000000, A.D. 2011-Nov-05 00:00:00.0000,      66.182568, -7.150447587852093E-01, -2.729409134615101E+00, -5.294907869311841E-01,  9.662833885789262E-03, -7.145394655892472E-04,  1.233639521516937E-03,
2455875.500000000, A.D. 2011-Nov-10 00:00:00.0000,      66.182642, -6.666212511573585E-01, -2.732552755170200E+00, -5.232396817802987E-01,  9.706135072861360E-03, -5.425820032179877E-04,  1.266793594913553E-03,
2455880.500000000, A.D. 2011-Nov-15 00:00:00.0000,      66.182727, -6.179878040300640E-01, -2.734831694084934E+00, -5.168229491926188E-01,  9.746798620732442E-03, -3.686682500827326E-04,  1.299888726945255E-03,
2455885.500000000, A.D. 2011-Nov-20 00:00:00.0000,      66.182823, -5.691577729540772E-01, -2.736236192704683E+00, -5.102409107942161E-01,  9.784757310507302E-03, -1.928075669526951E-04,  1.332914073350615E-03,
2455890.500000000, A.D. 2011-Nov-25 00:00:00.0000,      66.182929, -5.201448537428210E-01, -2.736756542875407E+00, -5.034939435955837E-01,  9.819942253433739E-03, -1.501080952981340E-05,  1.365858321671531E-03,
2455895.500000000, A.D. 2011-Nov-30 00:00:00.0000,      66.183044, -4.709630908585336E-01, -2.736383094665841E+00, -4.965824823772454E-01,  9.852282876532942E-03,  1.647095717535847E-04,  1.398709673333129E-03,
2455900.500000000, A.D. 2011-Dec-05 00:00:00.0000,      66.183164, -4.216268858644039E-01, -2.735106264600441E+00, -4.895070221659383E-01,  9.881706910625494E-03,  3.463394272362916E-04,  1.431455825351484E-03,
2455905.500000000, A.D. 2011-Dec-10 00:00:00.0000,      66.183290, -3.721510059297969E-01, -2.732916544426362E+00, -4.822681208029621E-01,  9.908140381150704E-03,  5.298627989427100E-04,  1.464083951774048E-03,
2455910.500000000, A.D. 2011-Dec-15 00:00:00.0000,      66.183421, -3.225505923732837E-01, -2.729804510437223E+00, -4.748664016058579E-01,  9.931507602319638E-03,  7.152618069276856E-04,  1.496580684910005E-03,
2455915.500000000, A.D. 2011-Dec-20 00:00:00.0000,      66.183558, -2.728411692254765E-01, -2.725760833377178E+00, -4.673025561245205E-01,  9.951731175109314E-03,  9.025165307333495E-04,  1.528932096316833E-03,
2455920.500000000, A.D. 2011-Dec-25 00:00:00.0000,      66.183699, -2.230386517916003E-01, -2.720776288950785E+00, -4.595773469930661E-01,  9.968731989417577E-03,  1.091604885570794E-03,  1.561123677513244E-03,
2455925.500000000, A.D. 2011-Dec-30 00:00:00.0000,      66.183843, -1.731593551922954E-01, -2.714841768965421E+00, -4.516916108787176E-01,  9.982429230675395E-03,  1.282502493122984E-03,  1.593140320472624E-03,
2455930.500000000, A.D. 2012-Jan-04 00:00:00.0000,      66.183987, -1.232200028593232E-01, -2.707948293133019E+00, -4.436462615285954E-01,  9.992740391355092E-03,  1.475182547020801E-03,  1.624966297981961E-03,
2455935.500000000, A.D. 2012-Jan-09 00:00:00.0000,      66.184130, -7.323773496046099E-02, -2.700087021557758E+00, -4.354422929149085E-01,  9.999581287870868E-03,  1.669615672974515E-03,  1.656585243930661E-03,
